[{"OBJECT_NAME":"STARLINK-3451","OBJECT_ID":"2022-016AM","EPOCH":"2026-03-09T22:27:09.664128","MEAN_MOTION":15.08833283,"ECCENTRICITY":0.00014225,"INCLINATION":53.2187,"RA_OF_ASC_NODE":318.1996,"ARG_OF_PERICENTER":88.2915,"MEAN_ANOMALY":271.8241,"EPHEMERIS_TYPE":0,"CLASSIFICATION_TYPE":"U","NORAD_CAT_ID":51749,"ELEMENT_SET_NO":999,"REV_AT_EPOCH":22359,"BSTAR":0.00016258917,"MEAN_MOTION_DOT":2.3e-5,"MEAN_MOTION_DDOT":0},{"OBJECT_NAME":"OBJECT D","OBJECT_ID":"2025-292D","EPOCH":"2026-03-09T21:45:32.907168","MEAN_MOTION":15.05344615,"ECCENTRICITY":0.00138692,"INCLINATION":97.6365,"RA_OF_ASC_NODE":145.5948,"ARG_OF_PERICENTER":343.7291,"MEAN_ANOMALY":16.3488,"EPHEMERIS_TYPE":0,"CLASSIFICATION_TYPE":"U","NORAD_CAT_ID":66996,"ELEMENT_SET_NO":999,"REV_AT_EPOCH":1350,"BSTAR":0.00030674408,"MEAN_MOTION_DOT":4.34e-5,"MEAN_MOTION_DDOT":0}]
